OBJECT_NAME,OBJECT_ID,EPOCH,MEAN_MOTION,ECCENTRICITY,INCLINATION,RA_OF_ASC_NODE,ARG_OF_PERICENTER,MEAN_ANOMALY,EPHEMERIS_TYPE,CLASSIFICATION_TYPE,NORAD_CAT_ID,ELEMENT_SET_NO,REV_AT_EPOCH,BSTAR,MEAN_MOTION_DOT,MEAN_MOTION_DDOT
AMOS-4,2013-045A,2026-06-15T13:22:12.887904,1.00271368,.00026694,0.0240,276.4278,142.6483,110.3229,0,U,39237,999,4694,0,.1E-6,0
AEHF-3 (USA 246),2013-050A,2026-06-15T09:24:12.741696,1.00272147,.00877509,5.2893,67.2010,188.0375,25.2033,0,U,39256,999,4563,0,.28E-6,0
ASTRA 2E,2013-056A,2026-06-15T13:11:43.893312,1.00271524,.00027475,0.0583,336.3725,111.1549,42.7298,0,U,39285,999,4640,0,.153E-5,0
FM-6,2013-058A,2026-06-15T08:16:02.257248,1.00260139,.00026592,0.0275,33.5220,135.8142,101.9068,0,U,39360,999,4605,0,0,0
RADUGA-1M 3,2013-062A,2026-06-15T00:02:12.971328,1.00271235,.00017575,5.9523,72.3801,263.2144,323.2342,0,U,39375,999,4608,0,.153E-5,0
SES-8,2013-071A,2026-06-15T08:22:46.666272,1.00270409,.0002574,0.0141,303.0332,145.0933,36.2038,0,U,39460,999,4441,0,-.266E-5,0
INMARSAT 5-F1,2013-073A,2026-06-15T09:56:12.043392,1.00271294,.00006509,0.0165,15.0375,297.1289,163.2073,0,U,39476,999,4556,0,.31E-6,0
TKSAT-1 (TUPAC KATARI),2013-075A,2026-06-15T12:38:47.051808,1.00270088,.00022916,0.0514,138.7381,293.5866,293.9909,0,U,39481,999,4558,0,-.192E-5,0
EXPRESS-AM5,2013-077A,2026-06-15T13:43:34.351104,1.00272454,.00003416,0.0131,297.8299,29.4955,282.4703,0,U,39487,999,4634,0,-.277E-5,0
GSAT-14,2014-001A,2026-06-15T11:42:03.823200,1.00270786,.00010088,0.0341,93.2635,183.4297,236.5808,0,U,39498,999,4536,0,-.74E-6,0
THAICOM 6,2014-002A,2026-06-15T11:43:26.190912,1.00272179,.00041852,0.0638,114.5844,355.1107,48.4260,0,U,39500,999,4544,0,-.118E-5,0
TDRS 12,2014-004A,2026-06-15T09:26:37.378752,1.00267147,.00031329,3.9756,19.0665,199.1217,146.1765,0,U,39504,999,4425,0,-.27E-5,0
ABS-2,2014-006A,2026-06-15T11:42:26.287200,1.00270883,.00037636,0.0489,81.9644,345.9635,86.3759,0,U,39508,999,4526,0,-.83E-6,0
ATHENA-FIDUS,2014-006B,2026-06-15T13:14:28.629600,1.00271555,.00011852,0.0201,73.3922,15.6803,51.1721,0,U,39509,999,4507,0,.156E-5,0
TURKSAT 4A,2014-007A,2026-06-15T13:15:36.021600,1.00273025,.00013545,0.0373,309.3372,3.4170,191.9811,0,U,39522,999,4495,0,.148E-5,0
EXPRESS-AT1,2014-010A,2026-06-15T16:07:10.095168,1.00302791,.00037229,0.2530,85.7262,42.8324,79.3374,0,U,39612,999,4480,0,.27E-6,0
EXPRESS-AT2,2014-010B,2026-06-15T00:27:57.375648,1.00268556,.00007151,0.0164,317.3869,298.3784,70.5369,0,U,39613,999,4447,0,.84E-6,0
AMAZONAS 4A,2014-011A,2026-06-15T10:59:52.367136,1.00270363,.00037561,0.0589,178.7718,293.4828,242.4620,0,U,39616,999,4469,0,-.249E-5,0
ASTRA 5B,2014-011B,2026-06-15T13:10:21.524736,1.00272707,.0001739,0.0463,337.5739,96.2231,51.1211,0,U,39617,999,4465,0,.14E-5,0
IRNSS-1B,2014-017A,2026-06-14T18:30:17.178624,1.00275602,.00230633,28.9259,240.4448,189.5629,165.7473,0,U,39635,999,4476,0,.132E-5,0
LUCH-5V,2014-023A,2026-06-15T15:09:38.739168,1.00275021,.00018186,5.1278,69.7558,46.6280,109.6306,0,U,39727,999,4434,0,-.271E-5,0
KAZSAT-3,2014-023B,2026-06-15T13:20:20.567040,1.00271665,.00001913,0.0169,28.9618,52.5973,80.8625,0,U,39728,999,4244,0,.63E-6,0
EUTELSAT 3B,2014-030A,2026-06-15T13:04:22.099008,1.00270261,.00038774,0.0638,13.0485,71.3815,18.5750,0,U,39773,999,4405,0,.22E-6,0
ASIASAT 8 (AMOS-7),2014-046A,2026-06-15T14:43:08.636160,1.00267143,.00012541,0.0170,11.5983,84.3470,134.0058,0,U,40107,999,10213,0,-.33E-5,0
ASIASAT 6,2014-052A,2026-06-15T13:37:49.901088,1.00271637,.00005907,0.0231,66.8521,26.4955,134.8785,0,U,40141,999,4306,0,-.36E-5,0
OPTUS 10,2014-054A,2026-06-15T13:38:31.560576,1.00271027,.00019089,0.0743,76.4555,7.7677,180.2672,0,U,40146,999,4301,0,-.145E-5,0
MEASAT-3B,2014-054B,2026-06-15T08:21:46.761696,1.00270395,.00031294,0.0611,58.3506,17.1971,45.0269,0,U,40147,999,4289,0,-.238E-5,0
HIMAWARI-8,2014-060A,2026-06-15T13:43:41.839392,1.00272096,.0000974,0.0159,345.4066,102.0786,162.9574,0,U,40267,999,4274,0,-.273E-5,0
IRNSS-1C,2014-061A,2026-06-14T20:20:39.429312,1.00269703,.00227268,6.5121,88.9752,2.1523,200.1682,0,U,40269,999,4266,0,-.16E-5,0
INTELSAT 30 (IS-30),2014-062A,2026-06-15T12:36:32.266944,1.00272478,.00013486,0.0233,41.8968,335.4606,340.5381,0,U,40271,999,677,0,-.148E-5,0
ARSAT 1,2014-062B,2026-06-15T11:00:29.807712,1.00270761,.00016526,0.0286,45.6872,30.3325,281.0446,0,U,40272,999,4260,0,-.257E-5,0
EUTELSAT 53A,2014-064A,2026-06-15T16:44:07.469952,1.00269191,.0001041,0.0136,305.5872,255.2099,7.2092,0,U,40277,999,4155,0,.1E-5,0
