AMOS-4                  
1 39237U 13045A   26166.55709361  .00000010  00000+0  00000+0 0  9993
2 39237   0.0240 276.4278 0002669 142.6483 110.3229  1.00271368 46948
AEHF-3 (USA 246)        
1 39256U 13050A   26166.39181414  .00000028  00000+0  00000+0 0  9994
2 39256   5.2893  67.2010 0087750 188.0375  25.2033  1.00272147 45636
ASTRA 2E                
1 39285U 13056A   26166.54981358  .00000153  00000+0  00000+0 0  9993
2 39285   0.0583 336.3725 0002747 111.1549  42.7298  1.00271524 46404
FM-6                    
1 39360U 13058A   26166.34447057  .00000000  00000+0  00000+0 0  9991
2 39360   0.0275  33.5220 0002659 135.8142 101.9068  1.00260139 46050
RADUGA-1M 3             
1 39375U 13062A   26166.00153902  .00000153  00000+0  00000+0 0  9997
2 39375   5.9523  72.3801 0001757 263.2144 323.2342  1.00271235 46084
SES-8                   
1 39460U 13071A   26166.34915123 -.00000266  00000+0  00000+0 0  9996
2 39460   0.0141 303.0332 0002574 145.0933  36.2038  1.00270409 44415
INMARSAT 5-F1           
1 39476U 13073A   26166.41402828  .00000031  00000+0  00000+0 0  9995
2 39476   0.0165  15.0375 0000650 297.1289 163.2073  1.00271294 45561
TKSAT-1 (TUPAC KATARI)  
1 39481U 13075A   26166.52693347 -.00000192  00000+0  00000+0 0  9992
2 39481   0.0514 138.7381 0002291 293.5866 293.9909  1.00270088 45580
EXPRESS-AM5             
1 39487U 13077A   26166.57192536 -.00000277  00000+0  00000+0 0  9993
2 39487   0.0131 297.8299 0000341  29.4955 282.4703  1.00272454 46344
GSAT-14                 
1 39498U 14001A   26166.48754425 -.00000074  00000+0  00000+0 0  9999
2 39498   0.0341  93.2635 0001008 183.4297 236.5808  1.00270786 45365
THAICOM 6               
1 39500U 14002A   26166.48849758 -.00000118  00000+0  00000+0 0  9997
2 39500   0.0638 114.5844 0004185 355.1107  48.4260  1.00272179 45443
TDRS 12                 
1 39504U 14004A   26166.39348818 -.00000270  00000+0  00000+0 0  9993
2 39504   3.9756  19.0665 0003132 199.1217 146.1765  1.00267147 44252
ABS-2                   
1 39508U 14006A   26166.48780425 -.00000083  00000+0  00000+0 0  9995
2 39508   0.0489  81.9644 0003763 345.9635  86.3759  1.00270883 45268
ATHENA-FIDUS            
1 39509U 14006B   26166.55172025  .00000156  00000+0  00000+0 0  9995
2 39509   0.0201  73.3922 0001185  15.6803  51.1721  1.00271555 45074
TURKSAT 4A              
1 39522U 14007A   26166.55250025  .00000148  00000+0  00000+0 0  9999
2 39522   0.0373 309.3372 0001354   3.4170 191.9811  1.00273025 44953
EXPRESS-AT1             
1 39612U 14010A   26166.67164462  .00000027  00000+0  00000+0 0  9991
2 39612   0.2530  85.7262 0003722  42.8324  79.3374  1.00302791 44802
EXPRESS-AT2             
1 39613U 14010B   26166.01941407  .00000084  00000+0  00000+0 0  9995
2 39613   0.0164 317.3869 0000715 298.3784  70.5369  1.00268556 44478
AMAZONAS 4A             
1 39616U 14011A   26166.45824499 -.00000249  00000+0  00000+0 0  9992
2 39616   0.0589 178.7718 0003756 293.4828 242.4620  1.00270363 44690
ASTRA 5B                
1 39617U 14011B   26166.54886024  .00000140  00000+0  00000+0 0  9994
2 39617   0.0463 337.5739 0001739  96.2231  51.1211  1.00272707 44657
IRNSS-1B                
1 39635U 14017A   26165.77103216  .00000132  00000+0  00000+0 0  9990
2 39635  28.9259 240.4448 0023063 189.5629 165.7473  1.00275602 44760
LUCH-5V                 
1 39727U 14023A   26166.63169837 -.00000271  00000+0  00000+0 0  9991
2 39727   5.1278  69.7558 0001818  46.6280 109.6306  1.00275021 44345
KAZSAT-3                
1 39728U 14023B   26166.55579360  .00000063  00000+0  00000+0 0  9997
2 39728   0.0169  28.9618 0000191  52.5973  80.8625  1.00271665 42444
EUTELSAT 3B             
1 39773U 14030A   26166.54470022  .00000022  00000+0  00000+0 0  9994
2 39773   0.0638  13.0485 0003877  71.3815  18.5750  1.00270261 44057
ASIASAT 8 (AMOS-7)      
1 40107U 14046A   26166.61329440 -.00000330  00000+0  00000+0 0  9992
2 40107   0.0170  11.5983 0001254  84.3470 134.0058  1.00267143102139
ASIASAT 6               
1 40141U 14052A   26166.56793867 -.00000360  00000+0  00000+0 0  9992
2 40141   0.0231  66.8521 0000590  26.4955 134.8785  1.00271637 43067
OPTUS 10                
1 40146U 14054A   26166.56842084 -.00000145  00000+0  00000+0 0  9996
2 40146   0.0743  76.4555 0001908   7.7677 180.2672  1.00271027 43019
MEASAT-3B               
1 40147U 14054B   26166.34845789 -.00000238  00000+0  00000+0 0  9991
2 40147   0.0611  58.3506 0003129  17.1971  45.0269  1.00270395 42890
HIMAWARI-8              
1 40267U 14060A   26166.57201203 -.00000273  00000+0  00000+0 0  9992
2 40267   0.0159 345.4066 0000974 102.0786 162.9574  1.00272096 42746
IRNSS-1C                
1 40269U 14061A   26165.84767858 -.00000160  00000+0  00000+0 0  9992
2 40269   6.5121  88.9752 0022726   2.1523 200.1682  1.00269703 42664
INTELSAT 30 (IS-30)     
1 40271U 14062A   26166.52537346 -.00000148  00000+0  00000+0 0  9995
2 40271   0.0233  41.8968 0001348 335.4606 340.5381  1.00272478  6778
ARSAT 1                 
1 40272U 14062B   26166.45867833 -.00000257  00000+0  00000+0 0  9996
2 40272   0.0286  45.6872 0001652  30.3325 281.0446  1.00270761 42606
EUTELSAT 53A            
1 40277U 14064A   26166.69730868  .00000100  00000+0  00000+0 0  9992
2 40277   0.0136 305.5872 0001041 255.2099   7.2092  1.00269191 41554
